ONEWEB-0518             
1 54136U 22138Z   25317.14359636  .00000036  00000+0  58152-4 0  9993
2 54136  87.9214 347.9740 0001978  98.5458 261.5899 13.19726316148338
ONEWEB-0519             
1 54137U 22138AA  25317.09305398  .00000025  00000+0  30171-4 0  9993
2 54137  87.9231 347.9484 0001670 101.4326 258.6995 13.19726514148334
ONEWEB-0520             
1 54138U 22138AB  25317.12779735  .00000115  00000+0  25486-3 0  9990
2 54138  87.9234 347.9456 0002163 100.3125 259.8252 13.19726302148323
ONEWEB-0521             
1 54139U 22138AC  25317.16096402  .00000030  00000+0  41535-4 0  9998
2 54139  87.9228 347.9240 0001578  97.7146 262.4166 13.19727327148275
ONEWEB-0522             
1 54140U 22138AD  25317.14042887  .00000067  00000+0  13609-3 0  9996
2 54140  87.9231 347.9291 0001988  99.2291 260.9067 13.19723925148318
ONEWEB-0523             
1 54141U 22138AE  25317.27514965  .00000113  00000+0  24654-3 0  9996
2 54141  87.9178 317.5025 0001419  63.7862 296.3417 13.20771708150809
ONEWEB-0524             
1 54142U 22138AF  25317.26410407  .00000117  00000+0  25610-3 0  9999
2 54142  87.9179 317.5064 0002329  68.7557 291.3825 13.20771546150809
ONEWEB-0525             
1 54143U 22138AG  25317.08357105  .00000076  00000+0  15862-3 0  9997
2 54143  87.9224 347.9621 0002092 100.8332 259.3037 13.19727234148329
ONEWEB-0526             
1 54144U 22138AH  25317.11674772  .00000092  00000+0  19704-3 0  9991
2 54144  87.9228 347.9430 0001905  95.7525 264.3825 13.19727264148302
ONEWEB-0529             
1 54145U 22138AJ  25317.04408738  .00000156  00000+0  35752-3 0  9993
2 54145  87.9219 347.9893 0002038  98.0607 262.0757 13.19726705148310
ONEWEB-0531             
1 54146U 22138AK  25317.24988592  .00000146  00000+0  32629-3 0  9996
2 54146  87.9184 317.5008 0001746  61.8991 298.2319 13.20774064150807
ONEWEB-0535             
1 54147U 22138AL  25317.15307060 -.00000035  00000+0 -12026-3 0  9990
2 54147  87.9231 347.9306 0001506  89.3247 270.8058 13.19726111148342
ONEWEB-0536             
1 54148U 22138AM  25317.01000432  .00000084  00000+0  17557-3 0  9995
2 54148  87.9178 317.5943 0001963  58.4231 301.7094 13.20771847150761
ONEWEB-0527             
1 54642U 22166A   25317.20886502  .00000098  00000+0  20475-3 0  9994
2 54642  87.9181 287.0833 0001950  84.1473 275.9883 13.21826398143003
ONEWEB-0528             
1 54643U 22166B   25316.98838257 -.00000142  00000+0 -37443-3 0  9998
2 54643  87.9179 287.1309 0001951  84.3587 275.7769 13.21824371142985
ONEWEB-0539             
1 54644U 22166C   25316.87482178  .00000106  00000+0  22464-3 0  9999
2 54644  87.9179 287.1197 0001805  91.9443 268.1898 13.21828641142965
