[{"OBJECT_NAME":"ONEWEB-0518","OBJECT_ID":"2022-138Z","EPOCH":"2025-11-13T03:26:46.725504","MEAN_MOTION":13.19726316,"ECCENTRICITY":0.00019787,"INCLINATION":87.9214,"RA_OF_ASC_NODE":347.974,"ARG_OF_PERICENTER":98.5458,"MEAN_ANOMALY":261.5899,"EPHEMERIS_TYPE":0,"CLASSIFICATION_TYPE":"U","NORAD_CAT_ID":54136,"ELEMENT_SET_NO":999,"REV_AT_EPOCH":14833,"BSTAR":5.8151887e-5,"MEAN_MOTION_DOT":3.6e-7,"MEAN_MOTION_DDOT":0},{"OBJECT_NAME":"ONEWEB-0519","OBJECT_ID":"2022-138AA","EPOCH":"2025-11-13T02:13:59.863872","MEAN_MOTION":13.19726514,"ECCENTRICITY":0.00016707,"INCLINATION":87.9231,"RA_OF_ASC_NODE":347.9484,"ARG_OF_PERICENTER":101.4326,"MEAN_ANOMALY":258.6995,"EPHEMERIS_TYPE":0,"CLASSIFICATION_TYPE":"U","NORAD_CAT_ID":54137,"ELEMENT_SET_NO":999,"REV_AT_EPOCH":14833,"BSTAR":3.0170843e-5,"MEAN_MOTION_DOT":2.5e-7,"MEAN_MOTION_DDOT":0},{"OBJECT_NAME":"ONEWEB-0520","OBJECT_ID":"2022-138AB","EPOCH":"2025-11-13T03:04:01.691040","MEAN_MOTION":13.19726302,"ECCENTRICITY":0.00021631,"INCLINATION":87.9234,"RA_OF_ASC_NODE":347.9456,"ARG_OF_PERICENTER":100.3125,"MEAN_ANOMALY":259.8252,"EPHEMERIS_TYPE":0,"CLASSIFICATION_TYPE":"U","NORAD_CAT_ID":54138,"ELEMENT_SET_NO":999,"REV_AT_EPOCH":14832,"BSTAR":0.00025486052,"MEAN_MOTION_DOT":1.15e-6,"MEAN_MOTION_DDOT":0},{"OBJECT_NAME":"ONEWEB-0521","OBJECT_ID":"2022-138AC","EPOCH":"2025-11-13T03:51:47.291328","MEAN_MOTION":13.19727327,"ECCENTRICITY":0.00015781,"INCLINATION":87.9228,"RA_OF_ASC_NODE":347.924,"ARG_OF_PERICENTER":97.7146,"MEAN_ANOMALY":262.4166,"EPHEMERIS_TYPE":0,"CLASSIFICATION_TYPE":"U","NORAD_CAT_ID":54139,"ELEMENT_SET_NO":999,"REV_AT_EPOCH":14827,"BSTAR":4.1534583e-5,"MEAN_MOTION_DOT":3.0e-7,"MEAN_MOTION_DDOT":0},{"OBJECT_NAME":"ONEWEB-0522","OBJECT_ID":"2022-138AD","EPOCH":"2025-11-13T03:22:13.054368","MEAN_MOTION":13.19723925,"ECCENTRICITY":0.00019881,"INCLINATION":87.9231,"RA_OF_ASC_NODE":347.9291,"ARG_OF_PERICENTER":99.2291,"MEAN_ANOMALY":260.9067,"EPHEMERIS_TYPE":0,"CLASSIFICATION_TYPE":"U","NORAD_CAT_ID":54140,"ELEMENT_SET_NO":999,"REV_AT_EPOCH":14831,"BSTAR":0.0001360897,"MEAN_MOTION_DOT":6.7e-7,"MEAN_MOTION_DDOT":0},{"OBJECT_NAME":"ONEWEB-0523","OBJECT_ID":"2022-138AE","EPOCH":"2025-11-13T06:36:12.929760","MEAN_MOTION":13.20771708,"ECCENTRICITY":0.00014198,"INCLINATION":87.9178,"RA_OF_ASC_NODE":317.5025,"ARG_OF_PERICENTER":63.7862,"MEAN_ANOMALY":296.3417,"EPHEMERIS_TYPE":0,"CLASSIFICATION_TYPE":"U","NORAD_CAT_ID":54141,"ELEMENT_SET_NO":999,"REV_AT_EPOCH":15080,"BSTAR":0.0002465407,"MEAN_MOTION_DOT":1.13e-6,"MEAN_MOTION_DDOT":0},{"OBJECT_NAME":"ONEWEB-0524","OBJECT_ID":"2022-138AF","EPOCH":"2025-11-13T06:20:18.591648","MEAN_MOTION":13.20771546,"ECCENTRICITY":0.00023294,"INCLINATION":87.9179,"RA_OF_ASC_NODE":317.5064,"ARG_OF_PERICENTER":68.7557,"MEAN_ANOMALY":291.3825,"EPHEMERIS_TYPE":0,"CLASSIFICATION_TYPE":"U","NORAD_CAT_ID":54142,"ELEMENT_SET_NO":999,"REV_AT_EPOCH":15080,"BSTAR":0.00025609844,"MEAN_MOTION_DOT":1.17e-6,"MEAN_MOTION_DDOT":0},{"OBJECT_NAME":"ONEWEB-0525","OBJECT_ID":"2022-138AG","EPOCH":"2025-11-13T02:00:20.538720","MEAN_MOTION":13.19727234,"ECCENTRICITY":0.00020927,"INCLINATION":87.9224,"RA_OF_ASC_NODE":347.9621,"ARG_OF_PERICENTER":100.8332,"MEAN_ANOMALY":259.3037,"EPHEMERIS_TYPE":0,"CLASSIFICATION_TYPE":"U","NORAD_CAT_ID":54143,"ELEMENT_SET_NO":999,"REV_AT_EPOCH":14832,"BSTAR":0.00015861716,"MEAN_MOTION_DOT":7.6e-7,"MEAN_MOTION_DDOT":0},{"OBJECT_NAME":"ONEWEB-0526","OBJECT_ID":"2022-138AH","EPOCH":"2025-11-13T02:48:07.003008","MEAN_MOTION":13.19727264,"ECCENTRICITY":0.00019051,"INCLINATION":87.9228,"RA_OF_ASC_NODE":347.943,"ARG_OF_PERICENTER":95.7525,"MEAN_ANOMALY":264.3825,"EPHEMERIS_TYPE":0,"CLASSIFICATION_TYPE":"U","NORAD_CAT_ID":54144,"ELEMENT_SET_NO":999,"REV_AT_EPOCH":14830,"BSTAR":0.00019704469,"MEAN_MOTION_DOT":9.2e-7,"MEAN_MOTION_DDOT":0},{"OBJECT_NAME":"ONEWEB-0529","OBJECT_ID":"2022-138AJ","EPOCH":"2025-11-13T01:03:29.149632","MEAN_MOTION":13.19726705,"ECCENTRICITY":0.0002038,"INCLINATION":87.9219,"RA_OF_ASC_NODE":347.9893,"ARG_OF_PERICENTER":98.0607,"MEAN_ANOMALY":262.0757,"EPHEMERIS_TYPE":0,"CLASSIFICATION_TYPE":"U","NORAD_CAT_ID":54145,"ELEMENT_SET_NO":999,"REV_AT_EPOCH":14831,"BSTAR":0.00035751606,"MEAN_MOTION_DOT":1.56e-6,"MEAN_MOTION_DDOT":0},{"OBJECT_NAME":"ONEWEB-0531","OBJECT_ID":"2022-138AK","EPOCH":"2025-11-13T05:59:50.143488","MEAN_MOTION":13.20774064,"ECCENTRICITY":0.0001746,"INCLINATION":87.9184,"RA_OF_ASC_NODE":317.5008,"ARG_OF_PERICENTER":61.8991,"MEAN_ANOMALY":298.2319,"EPHEMERIS_TYPE":0,"CLASSIFICATION_TYPE":"U","NORAD_CAT_ID":54146,"ELEMENT_SET_NO":999,"REV_AT_EPOCH":15080,"BSTAR":0.00032628643,"MEAN_MOTION_DOT":1.46e-6,"MEAN_MOTION_DDOT":0},{"OBJECT_NAME":"ONEWEB-0535","OBJECT_ID":"2022-138AL","EPOCH":"2025-11-13T03:40:25.299840","MEAN_MOTION":13.19726111,"ECCENTRICITY":0.0001506,"INCLINATION":87.9231,"RA_OF_ASC_NODE":347.9306,"ARG_OF_PERICENTER":89.3247,"MEAN_ANOMALY":270.8058,"EPHEMERIS_TYPE":0,"CLASSIFICATION_TYPE":"U","NORAD_CAT_ID":54147,"ELEMENT_SET_NO":999,"REV_AT_EPOCH":14834,"BSTAR":-0.00012026296,"MEAN_MOTION_DOT":-3.5e-7,"MEAN_MOTION_DDOT":0},{"OBJECT_NAME":"ONEWEB-0536","OBJECT_ID":"2022-138AM","EPOCH":"2025-11-13T00:14:24.373248","MEAN_MOTION":13.20771847,"ECCENTRICITY":0.00019636,"INCLINATION":87.9178,"RA_OF_ASC_NODE":317.5943,"ARG_OF_PERICENTER":58.4231,"MEAN_ANOMALY":301.7094,"EPHEMERIS_TYPE":0,"CLASSIFICATION_TYPE":"U","NORAD_CAT_ID":54148,"ELEMENT_SET_NO":999,"REV_AT_EPOCH":15076,"BSTAR":0.0001755706,"MEAN_MOTION_DOT":8.4e-7,"MEAN_MOTION_DDOT":0},{"OBJECT_NAME":"ONEWEB-0527","OBJECT_ID":"2022-166A","EPOCH":"2025-11-13T05:00:45.937728","MEAN_MOTION":13.21826398,"ECCENTRICITY":0.00019509,"INCLINATION":87.9181,"RA_OF_ASC_NODE":287.0833,"ARG_OF_PERICENTER":84.1473,"MEAN_ANOMALY":275.9883,"EPHEMERIS_TYPE":0,"CLASSIFICATION_TYPE":"U","NORAD_CAT_ID":54642,"ELEMENT_SET_NO":999,"REV_AT_EPOCH":14300,"BSTAR":0.00020475392,"MEAN_MOTION_DOT":9.8e-7,"MEAN_MOTION_DDOT":0},{"OBJECT_NAME":"ONEWEB-0528","OBJECT_ID":"2022-166B","EPOCH":"2025-11-12T23:43:16.254048","MEAN_MOTION":13.21824371,"ECCENTRICITY":0.00019511,"INCLINATION":87.9179,"RA_OF_ASC_NODE":287.1309,"ARG_OF_PERICENTER":84.3587,"MEAN_ANOMALY":275.7769,"EPHEMERIS_TYPE":0,"CLASSIFICATION_TYPE":"U","NORAD_CAT_ID":54643,"ELEMENT_SET_NO":999,"REV_AT_EPOCH":14298,"BSTAR":-0.00037443277,"MEAN_MOTION_DOT":-1.42e-6,"MEAN_MOTION_DDOT":0},{"OBJECT_NAME":"ONEWEB-0539","OBJECT_ID":"2022-166C","EPOCH":"2025-11-12T20:59:44.601792","MEAN_MOTION":13.21828641,"ECCENTRICITY":0.00018059,"INCLINATION":87.9179,"RA_OF_ASC_NODE":287.1197,"ARG_OF_PERICENTER":91.9443,"MEAN_ANOMALY":268.1898,"EPHEMERIS_TYPE":0,"CLASSIFICATION_TYPE":"U","NORAD_CAT_ID":54644,"ELEMENT_SET_NO":999,"REV_AT_EPOCH":14296,"BSTAR":0.00022464276,"MEAN_MOTION_DOT":1.06e-6,"MEAN_MOTION_DDOT":0}]
